COMMENT,ORIGINATOR,NORAD_CAT_ID,OBJECT_NAME,OBJECT_TYPE,CLASSIFICATION_TYPE,INTLDES,EPOCH,EPOCH_MICROSECONDS,MEAN_MOTION,ECCENTRICITY,INCLINATION,RA_OF_ASC_NODE,ARG_OF_PERICENTER,MEAN_ANOMALY,EPHEMERIS_TYPE,ELEMENT_SET_NO,REV_AT_EPOCH,BSTAR,MEAN_MOTION_DOT,MEAN_MOTION_DDOT,FILE,TLE_LINE0,TLE_LINE1,TLE_LINE2,OBJECT_ID,OBJECT_NUMBER,SEMIMAJOR_AXIS,PERIOD,APOGEE,PERIGEE,DECAYED
"GENERATED VIA SPACETRACK.ORG API","18 SPCS","55097","SPACEBEE-160","PAYLOAD","U","23001CS","2023-10-16 20:44:27","575520","15.25343142","0.001223","97.461","349.2017","297.7828","62.2169","0","999","4361","0.0011633","0.00029403","0","4037312","0 SPACEBEE-160","1 55097U 23001CS  23289.86420805  .00029403  00000-0  11633-2 0  9993","2 55097  97.4610 349.2017 0012230 297.7828  62.2169 15.25343142 43612","2023-001CS","55097","6867.892","94.405","498.157","481.358","0"
"GENERATED VIA SPACETRACK.ORG API","18 SPCS","55097","SPACEBEE-160","PAYLOAD","U","23001CS","2023-10-16 20:44:27","575520","15.25343142","0.001223","97.461","349.2017","297.7828","62.2169","0","999","4361","0.0011633","0.00029403","0","4037620","0 SPACEBEE-160","1 55097U 23001CS  23289.86420805  .00029403  00000-0  11633-2 0  9993","2 55097  97.4610 349.2017 0012230 297.7828  62.2169 15.25343142 43612","2023-001CS","55097","6867.892","94.405","498.157","481.358","0"
"GENERATED VIA SPACETRACK.ORG API","18 SPCS","55097","SPACEBEE-160","PAYLOAD","U","23001CS","2023-10-18 02:39:15","878016","15.25413991","0.0012179","97.4608","350.4446","293.2048","66.7907","0","999","4380","0.0012715","0.00032224","0","4040140","0 SPACEBEE-160","1 55097U 23001CS  23291.11060044  .00032224  00000-0  12715-2 0  9996","2 55097  97.4608 350.4446 0012179 293.2048  66.7907 15.25413991 43806","2023-001CS","55097","6867.680","94.401","497.909","481.180","0"
"GENERATED VIA SPACETRACK.ORG API","18 SPCS","55097","SPACEBEE-160","PAYLOAD","U","23001CS","2023-10-18 10:31:34","50720","15.25429148","0.0012142","97.4607","350.7713","291.8097","68.1849","0","999","4385","0.001073","0.00027176","0","4040119","0 SPACEBEE-160","1 55097U 23001CS  23291.43858855  .00027176  00000-0  10730-2 0  9991","2 55097  97.4607 350.7713 0012142 291.8097  68.1849 15.25429148 43850","2023-001CS","55097","6867.634","94.400","497.838","481.160","0"
"GENERATED VIA SPACETRACK.ORG API","18 SPCS","55097","SPACEBEE-160","PAYLOAD","U","23001CS","2023-10-18 21:32:46","939200","15.25462099","0.0012127","97.4605","351.229","290.1836","69.8097","0","999","4392","0.0014605","0.00037102","0","4040456","0 SPACEBEE-160","1 55097U 23001CS  23291.89776550  .00037102  00000-0  14605-2 0  9997","2 55097  97.4605 351.2290 0012127 290.1836  69.8097 15.25462099 43923","2023-001CS","55097","6867.535","94.398","497.728","481.072","0"
"GENERATED VIA SPACETRACK.ORG API","18 SPCS","55097","SPACEBEE-160","PAYLOAD","U","23001CS","2023-10-19 03:50:36","774240","15.25480857","0.0012128","97.4604","351.4906","289.2609","70.7316","0","999","4396","0.0014821","0.00037676","0","4041576","0 SPACEBEE-160","1 55097U 23001CS  23292.16014785  .00037676  00000-0  14821-2 0  9999","2 55097  97.4604 351.4906 0012128 289.2609  70.7316 15.25480857 43967","2023-001CS","55097","6867.479","94.396","497.673","481.015","0"
"GENERATED VIA SPACETRACK.ORG API","18 SPCS","55097","SPACEBEE-160","PAYLOAD","U","23001CS","2023-10-19 03:50:36","774240","15.25480857","0.0012128","97.4604","351.4906","289.2609","70.7316","0","999","4396","0.0014821","0.00037676","0","4042363","0 SPACEBEE-160","1 55097U 23001CS  23292.16014785  .00037676  00000-0  14821-2 0  9999","2 55097  97.4604 351.4906 0012128 289.2609  70.7316 15.25480857 43967","2023-001CS","55097","6867.479","94.396","497.673","481.015","0"
"GENERATED VIA SPACETRACK.ORG API","18 SPCS","55097","SPACEBEE-160","PAYLOAD","U","23001CS","2023-10-20 09:45:14","575680","15.2556521","0.0012128","97.4602","352.733","284.2658","75.7233","0","999","4415","0.0011982","0.00030493","0","4044198","0 SPACEBEE-160","1 55097U 23001CS  23293.40641870  .00030493  00000-0  11982-2 0  9993","2 55097  97.4602 352.7330 0012128 284.2658  75.7233 15.25565210 44151","2023-001CS","55097","6867.226","94.391","497.419","480.762","0"
"GENERATED VIA SPACETRACK.ORG API","18 SPCS","55097","SPACEBEE-160","PAYLOAD","U","23001CS","2023-10-20 09:45:14","575680","15.2556521","0.0012128","97.4602","352.733","284.2658","75.7233","0","999","4415","0.0011982","0.00030493","0","4044291","0 SPACEBEE-160","1 55097U 23001CS  23293.40641870  .00030493  00000-0  11982-2 0  9993","2 55097  97.4602 352.7330 0012128 284.2658  75.7233 15.25565210 44151","2023-001CS","55097","6867.226","94.391","497.419","480.762","0"
"GENERATED VIA SPACETRACK.ORG API","18 SPCS","55097","SPACEBEE-160","PAYLOAD","U","23001CS","2023-10-21 09:21:59","387616","15.25633478","0.0012156","97.4604","353.7137","280.7402","79.2468","0","999","4430","0.0015092","0.00038547","0","4046008","0 SPACEBEE-160","1 55097U 23001CS  23294.39027069  .00038547  00000-0  15092-2 0  9994","2 55097  97.4604 353.7137 0012156 280.7402  79.2468 15.25633478 44306","2023-001CS","55097","6867.021","94.387","497.233","480.538","0"
"GENERATED VIA SPACETRACK.ORG API","18 SPCS","55097","SPACEBEE-160","PAYLOAD","U","23001CS","2023-10-21 09:21:59","387616","15.25633478","0.0012156","97.4604","353.7137","280.7402","79.2468","0","999","4430","0.0015092","0.00038547","0","4046554","0 SPACEBEE-160","1 55097U 23001CS  23294.39027069  .00038547  00000-0  15092-2 0  9994","2 55097  97.4604 353.7137 0012156 280.7402  79.2468 15.25633478 44306","2023-001CS","55097","6867.021","94.387","497.233","480.538","0"
"GENERATED VIA SPACETRACK.ORG API","18 SPCS","55097","SPACEBEE-160","PAYLOAD","U","23001CS","2023-10-22 02:40:53","722560","15.25677815","0.0012101","97.4605","354.4332","278.0812","81.9053","0","999","4441","0.0010076","0.00025701","0","4047885","0 SPACEBEE-160","1 55097U 23001CS  23295.11173290  .00025701  00000-0  10076-2 0  9998","2 55097  97.4605 354.4332 0012101 278.0812  81.9053 15.25677815 44412","2023-001CS","55097","6866.888","94.384","497.062","480.443","0"
"GENERATED VIA SPACETRACK.ORG API","18 SPCS","55097","SPACEBEE-160","PAYLOAD","U","23001CS","2023-10-22 02:40:53","722560","15.25677815","0.0012101","97.4605","354.4332","278.0812","81.9053","0","999","4441","0.0010076","0.00025701","0","4047923","0 SPACEBEE-160","1 55097U 23001CS  23295.11173290  .00025701  00000-0  10076-2 0  9998","2 55097  97.4605 354.4332 0012101 278.0812  81.9053 15.25677815 44412","2023-001CS","55097","6866.888","94.384","497.062","480.443","0"
"GENERATED VIA SPACETRACK.ORG API","18 SPCS","55097","SPACEBEE-160","PAYLOAD","U","23001CS","2023-10-22 16:50:53","145600","15.2571197","0.0011848","97.4608","355.0218","275.002","84.9865","0","999","4450","0.00081796","0.00020856","0","4048538","0 SPACEBEE-160","1 55097U 23001CS  23295.70200400  .00020856  00000-0  81796-3 0  9991","2 55097  97.4608 355.0218 0011848 275.0020  84.9865 15.25711970 44505","2023-001CS","55097","6866.785","94.382","496.786","480.515","0"
"GENERATED VIA SPACETRACK.ORG API","18 SPCS","55097","SPACEBEE-160","PAYLOAD","U","23001CS","2023-10-23 03:51:58","538016","15.25744078","0.0012054","97.461","355.4802","274.0772","85.9088","0","999","4457","0.0010783","0.0002757","0","4049019","0 SPACEBEE-160","1 55097U 23001CS  23296.16109419  .00027570  00000-0  10783-2 0  9997","2 55097  97.4610 355.4802 0012054 274.0772  85.9088 15.25744078 44574","2023-001CS","55097","6866.689","94.380","496.831","480.277","0"
"GENERATED VIA SPACETRACK.ORG API","18 SPCS","55097","SPACEBEE-160","PAYLOAD","U","23001CS","2023-10-24 03:28:33","964320","15.25791267","0.0012028","97.4605","356.4609","270.0305","89.9554","0","999","4472","0.001052","0.00026932","0","4051588","0 SPACEBEE-160","1 55097U 23001CS  23297.14483755  .00026932  00000-0  10520-2 0  9994","2 55097  97.4605 356.4609 0012028 270.0305  89.9554 15.25791267 44724","2023-001CS","55097","6866.547","94.377","496.672","480.153","0"
"GENERATED VIA SPACETRACK.ORG API","18 SPCS","55097","SPACEBEE-160","PAYLOAD","U","23001CS","2023-10-25 14:06:09","565344","15.25851038","0.0012063","97.4607","357.9003","264.4699","95.5164","0","999","4494","0.00081268","0.00020809","0","4052522","0 SPACEBEE-160","1 55097U 23001CS  23298.58761071  .00020809  00000-0  81268-3 0  9998","2 55097  97.4607 357.9003 0012063 264.4699  95.5164 15.25851038 44949","2023-001CS","55097","6866.368","94.374","496.516","479.950","0"
"GENERATED VIA SPACETRACK.ORG API","18 SPCS","55097","SPACEBEE-160","PAYLOAD","U","23001CS","2023-10-25 21:58:19","595712","15.25868998","0.0012126","97.4609","358.2282","262.9115","97.0744","0","999","4499","0.00099558","0.00025539","0","4052988","0 SPACEBEE-160","1 55097U 23001CS  23298.91550458  .00025539  00000-0  99558-3 0  9996","2 55097  97.4609 358.2282 0012126 262.9115  97.0744 15.25868998 44999","2023-001CS","55097","6866.314","94.372","496.505","479.853","0"
"GENERATED VIA SPACETRACK.ORG API","18 SPCS","55097","SPACEBEE-160","PAYLOAD","U","23001CS","2023-10-26 02:41:37","473792","15.25879735","0.0012153","97.4609","358.4246","262.3016","97.6842","0","999","4502","0.0010055","0.00025804","0","4054082","0 SPACEBEE-160","1 55097U 23001CS  23299.11223928  .00025804  00000-0  10055-2 0  9997","2 55097  97.4609 358.4246 0012153 262.3016  97.6842 15.25879735 45026","2023-001CS","55097","6866.282","94.372","496.492","479.802","0"
"GENERATED VIA SPACETRACK.ORG API","18 SPCS","55097","SPACEBEE-160","PAYLOAD","U","23001CS","2023-10-26 16:51:30","372768","15.259132","0.0012126","97.4606","359.0132","259.6411","100.3461","0","999","4511","0.001043","0.00026799","0","4054421","0 SPACEBEE-160","1 55097U 23001CS  23299.70243487  .00026799  00000-0  10430-2 0  9995","2 55097  97.4606 359.0132 0012126 259.6411 100.3461 15.25913200 45117","2023-001CS","55097","6866.182","94.370","496.373","479.721","0"
